{
  "type": "FeatureCollection",
  "features": [
    {
      "type": "Feature",
      "properties": {
        "norad_id": 62876,
        "name": "QZS-6 (QZSS/PRN 200)",
        "group": "gnss",
        "lat": 0.02202268936659735,
        "lon": 66.04423310284744,
        "alt_km": 35791.61905181477,
        "timestamp": "2025-12-14T16:47:40.927811+00:00",
        "meta_object_name": "QZS-6 (QZSS/PRN 200)",
        "meta_object_id": "2025-023A",
        "meta_epoch": "2025-12-13T22:00:38.602080",
        "meta_mean_motion": 1.0027433,
        "meta_eccentricity": 0.00016272,
        "meta_inclination": 0.0345,
        "meta_ra_of_asc_node": 59.1507,
        "meta_arg_of_pericenter": 213.044,
        "meta_mean_anomaly": 231.313,
        "meta_ephemeris_type": 0,
        "meta_classification_type": "U",
        "meta_norad_cat_id": 62876,
        "meta_element_set_no": 999,
        "meta_rev_at_epoch": 310,
        "meta_bstar": 0,
        "meta_mean_motion_dot": -2.17e-06,
        "meta_mean_motion_ddot": 0,
        "tle_line1": "1 62876U 25023A   25347.91711345 -.00000217  00000+0  00000+0 0  9992",
        "tle_line2": "2 62876   0.0345  59.1507 0001627 213.0440 231.3130  1.00274330  3107"
      },
      "geometry": {
        "type": "Point",
        "coordinates": [
          66.04423310284744,
          0.02202268936659735
        ]
      }
    },
    {
      "type": "Feature",
      "properties": {
        "norad_id": 63130,
        "name": "COSMOS 2584 (704K)",
        "group": "gnss",
        "lat": -15.413360551311724,
        "lon": 71.6961894446831,
        "alt_km": 19143.678546439005,
        "timestamp": "2025-12-14T16:47:40.927823+00:00",
        "meta_object_name": "COSMOS 2584 (704K)",
        "meta_object_id": "2025-042A",
        "meta_epoch": "2025-12-12T20:16:48.196992",
        "meta_mean_motion": 2.13103011,
        "meta_eccentricity": 0.00076618,
        "meta_inclination": 64.9761,
        "meta_ra_of_asc_node": 79.1423,
        "meta_arg_of_pericenter": 217.4089,
        "meta_mean_anomaly": 142.5525,
        "meta_ephemeris_type": 0,
        "meta_classification_type": "U",
        "meta_norad_cat_id": 63130,
        "meta_element_set_no": 999,
        "meta_rev_at_epoch": 607,
        "meta_bstar": 0,
        "meta_mean_motion_dot": -4.4e-07,
        "meta_mean_motion_ddot": 0,
        "tle_line1": "1 63130U 25042A   25346.84500228 -.00000044  00000+0  00000+0 0  9992",
        "tle_line2": "2 63130  64.9761  79.1423 0007661 217.4089 142.5525  2.13103011  6074"
      },
      "geometry": {
        "type": "Point",
        "coordinates": [
          71.6961894446831,
          -15.413360551311724
        ]
      }
    },
    {
      "type": "Feature",
      "properties": {
        "norad_id": 64202,
        "name": "GPS BIII-8  (PRN 21)",
        "group": "gnss",
        "lat": 48.18935301467354,
        "lon": 89.79691033896215,
        "alt_km": 20183.745153902357,
        "timestamp": "2025-12-14T16:47:40.927834+00:00",
        "meta_object_name": "GPS BIII-8  (PRN 21)",
        "meta_object_id": "2025-116A",
        "meta_epoch": "2025-12-13T02:48:10.465056",
        "meta_mean_motion": 2.00558313,
        "meta_eccentricity": 0.00055988,
        "meta_inclination": 55.106,
        "meta_ra_of_asc_node": 38.6253,
        "meta_arg_of_pericenter": 307.9903,
        "meta_mean_anomaly": 54.3389,
        "meta_ephemeris_type": 0,
        "meta_classification_type": "U",
        "meta_norad_cat_id": 64202,
        "meta_element_set_no": 999,
        "meta_rev_at_epoch": 414,
        "meta_bstar": 0,
        "meta_mean_motion_dot": -9.8e-07,
        "meta_mean_motion_ddot": 0,
        "tle_line1": "1 64202U 25116A   25347.11678779 -.00000098  00000+0  00000+0 0  9992",
        "tle_line2": "2 64202  55.1060  38.6253 0005598 307.9903  54.3389  2.00558313  4146"
      },
      "geometry": {
        "type": "Point",
        "coordinates": [
          89.79691033896215,
          48.18935301467354
        ]
      }
    },
    {
      "type": "Feature",
      "properties": {
        "norad_id": 65590,
        "name": "COSMOS 2596 (708K)",
        "group": "gnss",
        "lat": 62.4106385778122,
        "lon": 76.80259562485419,
        "alt_km": 19155.75347671891,
        "timestamp": "2025-12-14T16:47:40.927849+00:00",
        "meta_object_name": "COSMOS 2596 (708K)",
        "meta_object_id": "2025-206B",
        "meta_epoch": "2025-12-13T20:50:15.808128",
        "meta_mean_motion": 2.13100516,
        "meta_eccentricity": 0.00140406,
        "meta_inclination": 64.7435,
        "meta_ra_of_asc_node": 321.4347,
        "meta_arg_of_pericenter": 306.4952,
        "meta_mean_anomaly": 236.937,
        "meta_ephemeris_type": 0,
        "meta_classification_type": "U",
        "meta_norad_cat_id": 65590,
        "meta_element_set_no": 999,
        "meta_rev_at_epoch": 196,
        "meta_bstar": 0,
        "meta_mean_motion_dot": -6.4e-07,
        "meta_mean_motion_ddot": 0,
        "tle_line1": "1 65590U 25206B   25347.86823852 -.00000064  00000+0  00000+0 0  9992",
        "tle_line2": "2 65590  64.7435 321.4347 0014040 306.4952 236.9370  2.13100516  1963"
      },
      "geometry": {
        "type": "Point",
        "coordinates": [
          76.80259562485419,
          62.4106385778122
        ]
      }
    }
  ]
}